STARLINK-35911          
1 68051U 26041M   26088.16668981  .00155969  00000+0  10068-2 0  9993
2 68051  53.1590 324.5551 0001188  84.8572  97.0351 15.75151791  5464
STARLINK-35808          
1 68052U 26041N   26088.08936693  .00195803  00000+0  12492-2 0  9997
2 68052  53.1579 325.1482 0001328 122.2556 237.8593 15.75293317  4289
STARLINK-36919          
1 68053U 26041P   26088.16668981  .00150284  00000+0  97071-3 0  9990
2 68053  53.1588 324.5013 0000894  45.4423 162.2010 15.75156101  5509
STARLINK-36924          
1 68054U 26041Q   26087.91718543  .00435432  00000+0  27020-2 0  9990
2 68054  53.1595 326.2158 0001446  31.8800 328.2307 15.75230400  4258
STARLINK-35998          
1 68055U 26041R   26088.08449925  .00286079  00000+0  18000-2 0  9994
2 68055  53.1582 325.1153 0000679 355.0588   5.0426 15.75340481  4285
STARLINK-36845          
1 68056U 26041S   26088.07994609  .00295016  00000+0  18525-2 0  9991
2 68056  53.1600 325.0858 0000695 303.4108  56.6846 15.75359901  4286
STARLINK-36954          
1 68057U 26041T   26088.04374745  .00313656  00000+0  19696-2 0  9993
2 68057  53.1603 325.5816 0001336  94.6697 265.4476 15.75306391  4277
STARLINK-36899          
1 68058U 26041U   26088.03954605  .00293516  00000+0  18460-2 0  9992
2 68058  53.1599 325.5538 0001304  48.0390 312.0741 15.75329288  4275
STARLINK-36917          
1 68059U 26041V   26088.03013204  .00193792  00000+0  12376-2 0  9999
2 68059  53.1579 325.4879 0001220  68.8410 291.2740 15.75276910  4271
STARLINK-36959          
1 68060U 26041W   26088.03499677  .00269552  00000+0  17022-2 0  9994
2 68060  53.1584 325.5220 0000934  76.3511 283.7613 15.75305380  4276
STARLINK-36915          
1 68061U 26041X   26087.95339836  .00307884  00000+0  19384-2 0  9999
2 68061  53.1597 325.7157 0002373  94.0505 266.0786 15.75262718  4262
STARLINK-36952          
1 68062U 26041Y   26088.03920651  .00280350  00000+0  17682-2 0  9998
2 68062  53.1597 325.5503 0001240  69.1786 290.9367 15.75301576  4270
