CCSDS_OMM_VERS = 2.0
CREATION_DATE  = 
ORIGINATOR     = 

OBJECT_NAME    = STARLINK-35911
OBJECT_ID      = 2026-041M
CENTER_NAME    = EARTH
REF_FRAME      = TEME
TIME_SYSTEM    = UTC
MEAN_ELEMENT_THEORY = SGP/SGP4

EPOCH          = 2026-03-29T04:00:01.999584
MEAN_MOTION    = 15.75151791
ECCENTRICITY   = .0001188
INCLINATION    = 53.1590
RA_OF_ASC_NODE = 324.5551
ARG_OF_PERICENTER = 84.8572
MEAN_ANOMALY   = 97.0351

EPHEMERIS_TYPE = 0
CLASSIFICATION_TYPE = U
NORAD_CAT_ID   = 68051
ELEMENT_SET_NO = 999
REV_AT_EPOCH   = 546
BSTAR          = .10068E-2
MEAN_MOTION_DOT = .155969E-2
MEAN_MOTION_DDOT = 0

CCSDS_OMM_VERS = 2.0
CREATION_DATE  = 
ORIGINATOR     = 

OBJECT_NAME    = STARLINK-35808
OBJECT_ID      = 2026-041N
CENTER_NAME    = EARTH
REF_FRAME      = TEME
TIME_SYSTEM    = UTC
MEAN_ELEMENT_THEORY = SGP/SGP4

EPOCH          = 2026-03-29T02:08:41.302752
MEAN_MOTION    = 15.75293317
ECCENTRICITY   = .0001328
INCLINATION    = 53.1579
RA_OF_ASC_NODE = 325.1482
ARG_OF_PERICENTER = 122.2556
MEAN_ANOMALY   = 237.8593

EPHEMERIS_TYPE = 0
CLASSIFICATION_TYPE = U
NORAD_CAT_ID   = 68052
ELEMENT_SET_NO = 999
REV_AT_EPOCH   = 428
BSTAR          = .12492E-2
MEAN_MOTION_DOT = .195803E-2
MEAN_MOTION_DDOT = 0

CCSDS_OMM_VERS = 2.0
CREATION_DATE  = 
ORIGINATOR     = 

OBJECT_NAME    = STARLINK-36919
OBJECT_ID      = 2026-041P
CENTER_NAME    = EARTH
REF_FRAME      = TEME
TIME_SYSTEM    = UTC
MEAN_ELEMENT_THEORY = SGP/SGP4

EPOCH          = 2026-03-29T04:00:01.999584
MEAN_MOTION    = 15.75156101
ECCENTRICITY   = .0000894
INCLINATION    = 53.1588
RA_OF_ASC_NODE = 324.5013
ARG_OF_PERICENTER = 45.4423
MEAN_ANOMALY   = 162.2010

EPHEMERIS_TYPE = 0
CLASSIFICATION_TYPE = U
NORAD_CAT_ID   = 68053
ELEMENT_SET_NO = 999
REV_AT_EPOCH   = 550
BSTAR          = .97071E-3
MEAN_MOTION_DOT = .150284E-2
MEAN_MOTION_DDOT = 0

CCSDS_OMM_VERS = 2.0
CREATION_DATE  = 
ORIGINATOR     = 

OBJECT_NAME    = STARLINK-36924
OBJECT_ID      = 2026-041Q
CENTER_NAME    = EARTH
REF_FRAME      = TEME
TIME_SYSTEM    = UTC
MEAN_ELEMENT_THEORY = SGP/SGP4

EPOCH          = 2026-03-28T22:00:44.821152
MEAN_MOTION    = 15.75230400
ECCENTRICITY   = .0001446
INCLINATION    = 53.1595
RA_OF_ASC_NODE = 326.2158
ARG_OF_PERICENTER = 31.8800
MEAN_ANOMALY   = 328.2307

EPHEMERIS_TYPE = 0
CLASSIFICATION_TYPE = U
NORAD_CAT_ID   = 68054
ELEMENT_SET_NO = 999
REV_AT_EPOCH   = 425
BSTAR          = .2702E-2
MEAN_MOTION_DOT = .435432E-2
MEAN_MOTION_DDOT = 0

CCSDS_OMM_VERS = 2.0
CREATION_DATE  = 
ORIGINATOR     = 

OBJECT_NAME    = STARLINK-35998
OBJECT_ID      = 2026-041R
CENTER_NAME    = EARTH
REF_FRAME      = TEME
TIME_SYSTEM    = UTC
MEAN_ELEMENT_THEORY = SGP/SGP4

EPOCH          = 2026-03-29T02:01:40.735200
MEAN_MOTION    = 15.75340481
ECCENTRICITY   = .0000679
INCLINATION    = 53.1582
RA_OF_ASC_NODE = 325.1153
ARG_OF_PERICENTER = 355.0588
MEAN_ANOMALY   = 5.0426

EPHEMERIS_TYPE = 0
CLASSIFICATION_TYPE = U
NORAD_CAT_ID   = 68055
ELEMENT_SET_NO = 999
REV_AT_EPOCH   = 428
BSTAR          = .18E-2
MEAN_MOTION_DOT = .286079E-2
MEAN_MOTION_DDOT = 0

CCSDS_OMM_VERS = 2.0
CREATION_DATE  = 
ORIGINATOR     = 

OBJECT_NAME    = STARLINK-36845
OBJECT_ID      = 2026-041S
CENTER_NAME    = EARTH
REF_FRAME      = TEME
TIME_SYSTEM    = UTC
MEAN_ELEMENT_THEORY = SGP/SGP4

EPOCH          = 2026-03-29T01:55:07.342176
MEAN_MOTION    = 15.75359901
ECCENTRICITY   = .0000695
INCLINATION    = 53.1600
RA_OF_ASC_NODE = 325.0858
ARG_OF_PERICENTER = 303.4108
MEAN_ANOMALY   = 56.6846

EPHEMERIS_TYPE = 0
CLASSIFICATION_TYPE = U
NORAD_CAT_ID   = 68056
ELEMENT_SET_NO = 999
REV_AT_EPOCH   = 428
BSTAR          = .18525E-2
MEAN_MOTION_DOT = .295016E-2
MEAN_MOTION_DDOT = 0

CCSDS_OMM_VERS = 2.0
CREATION_DATE  = 
ORIGINATOR     = 

OBJECT_NAME    = STARLINK-36954
OBJECT_ID      = 2026-041T
CENTER_NAME    = EARTH
REF_FRAME      = TEME
TIME_SYSTEM    = UTC
MEAN_ELEMENT_THEORY = SGP/SGP4

EPOCH          = 2026-03-29T01:02:59.779680
MEAN_MOTION    = 15.75306391
ECCENTRICITY   = .0001336
INCLINATION    = 53.1603
RA_OF_ASC_NODE = 325.5816
ARG_OF_PERICENTER = 94.6697
MEAN_ANOMALY   = 265.4476

EPHEMERIS_TYPE = 0
CLASSIFICATION_TYPE = U
NORAD_CAT_ID   = 68057
ELEMENT_SET_NO = 999
REV_AT_EPOCH   = 427
BSTAR          = .19696E-2
MEAN_MOTION_DOT = .313656E-2
MEAN_MOTION_DDOT = 0

CCSDS_OMM_VERS = 2.0
CREATION_DATE  = 
ORIGINATOR     = 

OBJECT_NAME    = STARLINK-36899
OBJECT_ID      = 2026-041U
CENTER_NAME    = EARTH
REF_FRAME      = TEME
TIME_SYSTEM    = UTC
MEAN_ELEMENT_THEORY = SGP/SGP4

EPOCH          = 2026-03-29T00:56:56.778720
MEAN_MOTION    = 15.75329288
ECCENTRICITY   = .0001304
INCLINATION    = 53.1599
RA_OF_ASC_NODE = 325.5538
ARG_OF_PERICENTER = 48.0390
MEAN_ANOMALY   = 312.0741

EPHEMERIS_TYPE = 0
CLASSIFICATION_TYPE = U
NORAD_CAT_ID   = 68058
ELEMENT_SET_NO = 999
REV_AT_EPOCH   = 427
BSTAR          = .1846E-2
MEAN_MOTION_DOT = .293516E-2
MEAN_MOTION_DDOT = 0

CCSDS_OMM_VERS = 2.0
CREATION_DATE  = 
ORIGINATOR     = 

OBJECT_NAME    = STARLINK-36917
OBJECT_ID      = 2026-041V
CENTER_NAME    = EARTH
REF_FRAME      = TEME
TIME_SYSTEM    = UTC
MEAN_ELEMENT_THEORY = SGP/SGP4

EPOCH          = 2026-03-29T00:43:23.408256
MEAN_MOTION    = 15.75276910
ECCENTRICITY   = .000122
INCLINATION    = 53.1579
RA_OF_ASC_NODE = 325.4879
ARG_OF_PERICENTER = 68.8410
MEAN_ANOMALY   = 291.2740

EPHEMERIS_TYPE = 0
CLASSIFICATION_TYPE = U
NORAD_CAT_ID   = 68059
ELEMENT_SET_NO = 999
REV_AT_EPOCH   = 427
BSTAR          = .12376E-2
MEAN_MOTION_DOT = .193792E-2
MEAN_MOTION_DDOT = 0

CCSDS_OMM_VERS = 2.0
CREATION_DATE  = 
ORIGINATOR     = 

OBJECT_NAME    = STARLINK-36959
OBJECT_ID      = 2026-041W
CENTER_NAME    = EARTH
REF_FRAME      = TEME
TIME_SYSTEM    = UTC
MEAN_ELEMENT_THEORY = SGP/SGP4

EPOCH          = 2026-03-29T00:50:23.720928
MEAN_MOTION    = 15.75305380
ECCENTRICITY   = .0000934
INCLINATION    = 53.1584
RA_OF_ASC_NODE = 325.5220
ARG_OF_PERICENTER = 76.3511
MEAN_ANOMALY   = 283.7613

EPHEMERIS_TYPE = 0
CLASSIFICATION_TYPE = U
NORAD_CAT_ID   = 68060
ELEMENT_SET_NO = 999
REV_AT_EPOCH   = 427
BSTAR          = .17022E-2
MEAN_MOTION_DOT = .269552E-2
MEAN_MOTION_DDOT = 0

CCSDS_OMM_VERS = 2.0
CREATION_DATE  = 
ORIGINATOR     = 

OBJECT_NAME    = STARLINK-36915
OBJECT_ID      = 2026-041X
CENTER_NAME    = EARTH
REF_FRAME      = TEME
TIME_SYSTEM    = UTC
MEAN_ELEMENT_THEORY = SGP/SGP4

EPOCH          = 2026-03-28T22:52:53.618304
MEAN_MOTION    = 15.75262718
ECCENTRICITY   = .0002373
INCLINATION    = 53.1597
RA_OF_ASC_NODE = 325.7157
ARG_OF_PERICENTER = 94.0505
MEAN_ANOMALY   = 266.0786

EPHEMERIS_TYPE = 0
CLASSIFICATION_TYPE = U
NORAD_CAT_ID   = 68061
ELEMENT_SET_NO = 999
REV_AT_EPOCH   = 426
BSTAR          = .19384E-2
MEAN_MOTION_DOT = .307884E-2
MEAN_MOTION_DDOT = 0

CCSDS_OMM_VERS = 2.0
CREATION_DATE  = 
ORIGINATOR     = 

OBJECT_NAME    = STARLINK-36952
OBJECT_ID      = 2026-041Y
CENTER_NAME    = EARTH
REF_FRAME      = TEME
TIME_SYSTEM    = UTC
MEAN_ELEMENT_THEORY = SGP/SGP4

EPOCH          = 2026-03-29T00:56:27.442464
MEAN_MOTION    = 15.75301576
ECCENTRICITY   = .000124
INCLINATION    = 53.1597
RA_OF_ASC_NODE = 325.5503
ARG_OF_PERICENTER = 69.1786
MEAN_ANOMALY   = 290.9367

EPHEMERIS_TYPE = 0
CLASSIFICATION_TYPE = U
NORAD_CAT_ID   = 68062
ELEMENT_SET_NO = 999
REV_AT_EPOCH   = 427
BSTAR          = .17682E-2
MEAN_MOTION_DOT = .28035E-2
MEAN_MOTION_DDOT = 0

